NORAD_CAT_ID,OBJECT_NAME,OBJECT_TYPE,EPOCH,MEAN_MOTION,ECCENTRICITY,INCLINATION,RA_OF_ASC_NODE,ARG_OF_PERICENTER,MEAN_ANOMALY,BSTAR,MEAN_MOTION_DOT,MEAN_MOTION_DDOT,TLE_LINE0,TLE_LINE1,TLE_LINE2,SEMIMAJOR_AXIS,PERIOD,APOGEE,PERIGEE,DECAYED
52567.0,STARLINK-3929,PAYLOAD,2024-03-25 05:43:03,15.08831519,0.0001576,53.218,86.4177,105.2687,254.8479,9.6391e-05,1.246e-05,0.0,0 STARLINK-3929,1 52567U 22051AL  24085.23823948  .00001246  00000-0  96391-4 0  9998,2 52567  53.2180  86.4177 0001576 105.2687 254.8479 15.08831519103797,6917.906,95.438,540.862,538.681,0.0
52567.0,STARLINK-3929,PAYLOAD,2024-03-25 16:50:45,15.08838929,0.0001246,53.2164,84.3353,80.5633,279.55,7.9097e-05,9.71e-06,0.0,0 STARLINK-3929,1 52567U 22051AL  24085.70191834  .00000971  00000-0  79097-4 0  9990,2 52567  53.2164  84.3353 0001246  80.5633 279.5500 15.08838929103793,6917.884,95.438,540.611,538.887,0.0
52567.0,STARLINK-3929,PAYLOAD,2024-03-26 05:33:52,15.08826958,0.0001854,53.2194,81.9537,63.7987,296.3195,-0.00012776,-2.32e-05,0.0,0 STARLINK-3929,1 52567U 22051AL  24086.23185674 -.00002320  00000-0 -12776-3 0  9996,2 52567  53.2194  81.9537 0001854  63.7987 296.3195 15.08826958103946,6917.92,95.438,541.068,538.503,0.0
52567.0,STARLINK-3929,PAYLOAD,2024-03-26 08:44:38,15.08832372,0.0001522,53.2175,81.3596,78.2353,281.881,-0.0001366,-2.461e-05,0.0,0 STARLINK-3929,1 52567U 22051AL  24086.36433366 -.00002461  00000-0 -13660-3 0  9993,2 52567  53.2175  81.3596 0001522  78.2353 281.8810 15.08832372103898,6917.904,95.438,540.822,538.716,0.0
52567.0,STARLINK-3929,PAYLOAD,2024-03-26 16:41:33,15.08840856,0.0001545,53.2181,79.8745,86.2218,273.895,-5.6161e-05,-1.182e-05,0.0,0 STARLINK-3929,1 52567U 22051AL  24086.69552695 -.00001182  00000-0 -56161-4 0  9999,2 52567  53.2181  79.8745 0001545  86.2218 273.8950 15.08840856104014,6917.878,95.438,540.812,538.674,0.0
52567.0,STARLINK-3929,PAYLOAD,2024-03-27 08:35:24,15.08854086,0.0001445,53.2166,76.9005,80.1079,280.0076,0.0003998,6.083e-05,0.0,0 STARLINK-3929,1 52567U 22051AL  24087.35792065  .00006083  00000-0  39980-3 0  9992,2 52567  53.2166  76.9005 0001445  80.1079 280.0076 15.08854086104111,6917.837,95.437,540.702,538.703,0.0
52567.0,STARLINK-3929,PAYLOAD,2024-03-27 16:32:20,15.08846687,0.0001384,53.2165,75.4111,89.3428,270.7723,0.00029067,4.342e-05,0.0,0 STARLINK-3929,1 52567U 22051AL  24087.68912338  .00004342  00000-0  29067-3 0  9996,2 52567  53.2165  75.4111 0001384  89.3428 270.7723 15.08846687104161,6917.86,95.437,540.682,538.768,0.0
52567.0,STARLINK-3929,PAYLOAD,2024-03-28 08:26:11,15.08853695,0.0001445,53.2171,72.4369,93.9752,266.1406,0.00034787,5.255e-05,0.0,0 STARLINK-3929,1 52567U 22051AL  24088.35151778  .00005255  00000-0  34787-3 0  9993,2 52567  53.2171  72.4369 0001445  93.9752 266.1406 15.08853695104196,6917.839,95.437,540.703,538.704,0.0
52567.0,STARLINK-3929,PAYLOAD,2024-03-28 22:44:40,15.08834724,0.0001466,53.2179,69.7612,92.2829,267.8331,-0.0001327,-2.399e-05,0.0,0 STARLINK-3929,1 52567U 22051AL  24088.94768815 -.00002399  00000-0 -13270-3 0  9996,2 52567  53.2179  69.7612 0001466  92.2829 267.8331 15.08834724104281,6917.897,95.438,540.776,538.747,0.0
52567.0,STARLINK-3929,PAYLOAD,2024-03-29 05:06:12,15.08832496,0.0001315,53.2171,68.5709,106.6062,253.5074,-0.00018219,-3.186e-05,0.0,0 STARLINK-3929,1 52567U 22051AL  24089.21264982 -.00003186  00000-0 -18219-3 0  9996,2 52567  53.2171  68.5709 0001315 106.6062 253.5074 15.08832496104391,6917.903,95.438,540.678,538.859,0.0
52567.0,STARLINK-3929,PAYLOAD,2024-03-29 08:16:59,15.08830333,0.000137,53.2179,67.9769,87.1535,272.9614,-0.00021827,-3.759e-05,0.0,0 STARLINK-3929,1 52567U 22051AL  24089.34513106 -.00003759  00000-0 -21827-3 0  9990,2 52567  53.2179  67.9769 0001370  87.1535 272.9614 15.08830333104345,6917.91,95.438,540.723,538.827,0.0
52567.0,STARLINK-3929,PAYLOAD,2024-03-30 04:56:59,15.08850924,0.0001136,53.2172,64.1132,89.2924,270.8198,0.00024673,3.642e-05,0.0,0 STARLINK-3929,1 52567U 22051AL  24090.20624503  .00003642  00000-0  24673-3 0  9992,2 52567  53.2172  64.1132 0001136  89.2924 270.8198 15.08850924104540,6917.847,95.437,540.498,538.926,0.0
52567.0,STARLINK-3929,PAYLOAD,2024-03-30 08:07:45,15.08853544,0.0001248,53.217,63.5178,87.4183,272.6952,0.00046978,7.199e-05,0.0,0 STARLINK-3929,1 52567U 22051AL  24090.33872647  .00007199  00000-0  46978-3 0  9993,2 52567  53.2170  63.5178 0001248  87.4183 272.6952 15.08853544104495,6917.839,95.437,540.567,538.841,0.0
52567.0,STARLINK-3929,PAYLOAD,2024-03-31 04:47:46,15.08848202,9.82e-05,53.2174,59.6527,99.1849,260.9255,0.00039969,6.08e-05,0.0,0 STARLINK-3929,1 52567U 22051AL  24091.19984703  .00006080  00000-0  39969-3 0  9995,2 52567  53.2174  59.6527 0000982  99.1849 260.9255 15.08848202104699,6917.855,95.437,540.4,539.041,0.0
52567.0,STARLINK-3929,PAYLOAD,2024-03-31 14:20:06,15.08832957,0.0001136,53.2182,57.8691,88.8553,271.2569,6.0834e-05,6.8e-06,0.0,0 STARLINK-3929,1 52567U 22051AL  24091.59729442  .00000680  00000-0  60834-4 0  9992,2 52567  53.2182  57.8691 0001136  88.8553 271.2569 15.08832957104681,6917.902,95.438,540.553,538.981,0.0
52567.0,STARLINK-3929,PAYLOAD,2024-03-31 20:41:38,15.08835111,0.0001147,53.2181,56.6785,89.5307,270.5817,-7.7397e-05,-1.519e-05,0.0,0 STARLINK-3929,1 52567U 22051AL  24091.86225136 -.00001519  00000-0 -77397-4 0  9999,2 52567  53.2181  56.6785 0001147  89.5307 270.5817 15.08835111104793,6917.895,95.438,540.554,538.967,0.0
52567.0,STARLINK-3929,PAYLOAD,2024-04-01 03:03:10,15.08848676,0.0001032,53.2168,55.4914,83.1479,276.963,0.00021833,3.189e-05,0.0,0 STARLINK-3929,1 52567U 22051AL  24092.12720517  .00003189  00000-0  21833-3 0  9998,2 52567  53.2168  55.4914 0001032  83.1479 276.9630 15.08848676104830,6917.854,95.437,540.433,539.005,0.0
52567.0,STARLINK-3929,PAYLOAD,2024-04-01 14:10:52,15.08851028,0.000113,53.218,53.411,94.6314,265.4807,0.00059885,9.258e-05,0.0,0 STARLINK-3929,1 52567U 22051AL  24092.59088578  .00009258  00000-0  59885-3 0  9994,2 52567  53.2180  53.4110 0001130  94.6314 265.4807 15.08851028104838,6917.847,95.437,540.493,538.93,0.0
52567.0,STARLINK-3929,PAYLOAD,2024-04-01 20:32:25,15.08847172,0.0001346,53.2191,52.2216,97.2952,262.8193,0.00034118,5.147e-05,0.0,0 STARLINK-3929,1 52567U 22051AL  24092.85584596  .00005147  00000-0  34118-3 0  9999,2 52567  53.2191  52.2216 0001346  97.2952 262.8193 15.08847172104946,6917.858,95.437,540.655,538.792,0.0
52567.0,STARLINK-3929,PAYLOAD,2024-04-02 14:01:39,15.0884146,0.0001095,53.2186,48.9498,100.2853,259.8262,3.7843e-05,3.15e-06,0.0,0 STARLINK-3929,1 52567U 22051AL  24093.58448535  .00000315  00000-0  37843-4 0  9993,2 52567  53.2186  48.9498 0001095 100.2853 259.8262 15.08841460104981,6917.876,95.437,540.498,538.983,0.0
52567.0,STARLINK-3929,PAYLOAD,2024-04-03 13:52:26,15.08839328,0.0001299,53.2184,44.4879,80.5981,279.5158,4.1982e-05,3.8e-06,0.0,0 STARLINK-3929,1 52567U 22051AL  24094.57808905  .00000380  00000-0  41982-4 0  9995,2 52567  53.2184  44.4879 0001299  80.5981 279.5158 15.08839328105132,6917.882,95.438,540.646,538.849,0.0
52567.0,STARLINK-3929,PAYLOAD,2024-04-04 04:10:55,15.08839184,0.0001204,53.2182,41.8126,84.6215,275.4915,7.2526e-05,8.67e-06,0.0,0 STARLINK-3929,1 52567U 22051AL  24095.17425100  .00000867  00000-0  72526-4 0  9992,2 52567  53.2182  41.8126 0001204  84.6215 275.4915 15.08839184105290,6917.883,95.438,540.581,538.915,0.0
52567.0,STARLINK-3929,PAYLOAD,2024-04-04 13:43:13,15.08844651,0.0001249,53.2186,40.0298,82.5732,277.5402,0.00011948,1.614e-05,0.0,0 STARLINK-3929,1 52567U 22051AL  24095.57168879  .00001614  00000-0  11948-3 0  9994,2 52567  53.2186  40.0298 0001249  82.5732 277.5402 15.08844651105283,6917.866,95.437,540.595,538.867,0.0
52567.0,STARLINK-3929,PAYLOAD,2024-04-04 20:04:46,15.08844017,0.0001307,53.2187,38.8406,81.5265,278.5875,0.00011041,1.47e-05,0.0,0 STARLINK-3929,1 52567U 22051AL  24095.83664944  .00001470  00000-0  11041-3 0  9991,2 52567  53.2187  38.8406 0001307  81.5265 278.5875 15.08844017105321,6917.868,95.437,540.637,538.829,0.0
52567.0,STARLINK-3929,PAYLOAD,2024-04-05 02:26:18,15.08852503,0.0001281,53.219,37.6481,93.3943,266.7196,0.00030067,4.502e-05,0.0,0 STARLINK-3929,1 52567U 22051AL  24096.10160472  .00004502  00000-0  30067-3 0  9997,2 52567  53.2190  37.6481 0001281  93.3943 266.7196 15.08852503105436,6917.842,95.437,540.593,538.821,0.0
52567.0,STARLINK-3929,PAYLOAD,2024-04-05 13:34:00,15.08849563,0.0001133,53.2175,35.5672,96.1712,263.9409,0.00024761,3.656e-05,0.0,0 STARLINK-3929,1 52567U 22051AL  24096.56528441  .00003656  00000-0  24761-3 0  9994,2 52567  53.2175  35.5672 0001133  96.1712 263.9409 15.08849563105437,6917.851,95.437,540.5,538.932,0.0
52567.0,STARLINK-3929,PAYLOAD,2024-04-06 02:17:05,15.0884574,0.0001577,53.2183,33.1884,93.8262,266.2911,0.00015301,2.148e-05,0.0,0 STARLINK-3929,1 52567U 22051AL  24097.09520640  .00002148  00000-0  15301-3 0  9991,2 52567  53.2183  33.1884 0001577  93.8262 266.2911 15.08845740105584,6917.863,95.437,540.819,538.637,0.0
52567.0,STARLINK-3929,PAYLOAD,2024-04-06 22:57:06,15.08839365,0.0001631,53.2204,29.3217,98.7587,261.3589,-7.0024e-06,-3.99e-06,0.0,0 STARLINK-3929,1 52567U 22051AL  24097.95632915 -.00000399  00000-0 -70024-5 0  9998,2 52567  53.2204  29.3217 0001631  98.7587 261.3589 15.08839365105640,6917.882,95.438,540.876,538.619,0.0
52567.0,STARLINK-3929,PAYLOAD,2024-04-07 05:18:39,15.08840692,0.0001608,53.2198,28.1329,98.2374,261.88,-1.7311e-05,-5.64e-06,0.0,0 STARLINK-3929,1 52567U 22051AL  24098.22128835 -.00000564  00000-0 -17311-4 0  9993,2 52567  53.2198  28.1329 0001608  98.2374 261.8800 15.08840692105754,6917.878,95.438,540.856,538.631,0.0
52567.0,STARLINK-3929,PAYLOAD,2024-04-07 22:47:52,15.08851775,0.000161,53.2201,24.8625,102.8323,257.2849,0.00017494,2.498e-05,0.0,0 STARLINK-3929,1 52567U 22051AL  24098.94991881  .00002498  00000-0  17494-3 0  9998,2 52567  53.2201  24.8625 0001610 102.8323 257.2849 15.08851775105790,6917.844,95.437,540.823,538.596,0.0
